
    {
        "ARG_OF_PERICENTER": 229.4697,
        "BSTAR": 5.550137e-05,
        "CLASSIFICATION_TYPE": "U",
        "ECCENTRICITY": 0.00092316,
        "ELEMENT_SET_NO": 999,
        "EPHEMERIS_TYPE": 0,
        "EPOCH": "2026-06-19T07:08:40.083360",
        "INCLINATION": 98.3996,
        "MEAN_ANOMALY": 130.5686,
        "MEAN_MOTION": 14.36542792,
        "MEAN_MOTION_DDOT": 0,
        "MEAN_MOTION_DOT": 1.2e-06,
        "NORAD_CAT_ID": 39091,
        "OBJECT_ID": "2013-009F",
        "OBJECT_NAME": "BRITE-AUSTRIA",
        "RA_OF_ASC_NODE": 349.6811,
        "REV_AT_EPOCH": 69735
    },
    {
        "ARG_OF_PERICENTER": 152.21,
        "BSTAR": 0.00024785549,
        "CLASSIFICATION_TYPE": "U",
        "ECCENTRICITY": 0.00133076,
        "ELEMENT_SET_NO": 999,
        "EPHEMERIS_TYPE": 0,
        "EPOCH": "2026-06-19T08:12:56.297664",
        "INCLINATION": 98.1228,
        "MEAN_ANOMALY": 207.9832,
        "MEAN_MOTION": 14.93669357,
        "MEAN_MOTION_DDOT": 0,
        "MEAN_MOTION_DOT": 2.563e-05,
        "NORAD_CAT_ID": 39151,
        "OBJECT_ID": "2013-018B",
        "OBJECT_NAME": "NEE-01 PEGASO",
        "RA_OF_ASC_NODE": 314.5632,
        "REV_AT_EPOCH": 71102
    },
    {
        "ARG_OF_PERICENTER": 187.1255,
        "BSTAR": 0.00021242368,
        "CLASSIFICATION_TYPE": "U",
        "ECCENTRICITY": 0.04167483,
        "ELEMENT_SET_NO": 999,
        "EPHEMERIS_TYPE": 0,
        "EPOCH": "2026-06-19T06:09:35.415360",
        "INCLINATION": 80.9911,
        "MEAN_ANOMALY": 172.3929,
        "MEAN_MOTION": 14.9125809,
        "MEAN_MOTION_DDOT": 0,
        "MEAN_MOTION_DOT": 0.00012578,
        "NORAD_CAT_ID": 39269,
        "OBJECT_ID": "2013-055E",
        "OBJECT_NAME": "POPACS 2",
        "RA_OF_ASC_NODE": 141.8234,
        "REV_AT_EPOCH": 66352
    },
    {
        "ARG_OF_PERICENTER": 62.6747,
        "BSTAR": 0.00019341554,
        "CLASSIFICATION_TYPE": "U",
        "ECCENTRICITY": 0.05519329,
        "ELEMENT_SET_NO": 999,
        "EPHEMERIS_TYPE": 0,
        "EPOCH": "2026-06-19T14:14:04.760160",
        "INCLINATION": 80.9999,
        "MEAN_ANOMALY": 302.9521,
        "MEAN_MOTION": 14.56159845,
        "MEAN_MOTION_DDOT": 0,
        "MEAN_MOTION_DOT": 8.231e-05,
        "NORAD_CAT_ID": 39270,
        "OBJECT_ID": "2013-055F",
        "OBJECT_NAME": "POPACS 3",
        "RA_OF_ASC_NODE": 226.5792,
        "REV_AT_EPOCH": 63890
    },
    {
        "ARG_OF_PERICENTER": 239.8049,
        "BSTAR": 0.00018943172,
        "CLASSIFICATION_TYPE": "U",
        "ECCENTRICITY": 0.00410958,
        "ELEMENT_SET_NO": 999,
        "EPHEMERIS_TYPE": 0,
        "EPOCH": "2026-06-19T11:21:59.033088",
        "INCLINATION": 97.8074,
        "MEAN_ANOMALY": 119.9102,
        "MEAN_MOTION": 15.01199188,
        "MEAN_MOTION_DDOT": 0,
        "MEAN_MOTION_DOT": 2.409e-05,
        "NORAD_CAT_ID": 39417,
        "OBJECT_ID": "2013-066B",
        "OBJECT_NAME": "ZACUBE-1 (TSHEPISOSAT)",
        "RA_OF_ASC_NODE": 132.8224,
        "REV_AT_EPOCH": 68107
    },
    {
        "ARG_OF_PERICENTER": 224.7704,
        "BSTAR": 0.00014260984,
        "CLASSIFICATION_TYPE": "U",
        "ECCENTRICITY": 0.01620846,
        "ELEMENT_SET_NO": 999,
        "EPHEMERIS_TYPE": 0,
        "EPOCH": "2026-06-19T08:07:27.264864",
        "INCLINATION": 97.7205,
        "MEAN_ANOMALY": 134.0323,
        "MEAN_MOTION": 14.58065536,
        "MEAN_MOTION_DDOT": 0,
        "MEAN_MOTION_DOT": 7.35e-06,
        "NORAD_CAT_ID": 39423,
        "OBJECT_ID": "2013-066H",
        "OBJECT_NAME": "WNISAT-1",
        "RA_OF_ASC_NODE": 319.3421,
        "REV_AT_EPOCH": 66704
    },
    {
        "ARG_OF_PERICENTER": 225.9441,
        "BSTAR": 0.00021970659,
        "CLASSIFICATION_TYPE": "U",
        "ECCENTRICITY": 0.00885659,
        "ELEMENT_SET_NO": 999,
        "EPHEMERIS_TYPE": 0,
        "EPOCH": "2026-06-19T14:12:02.016000",
        "INCLINATION": 97.8246,
        "MEAN_ANOMALY": 133.4455,
        "MEAN_MOTION": 14.81714065,
        "MEAN_MOTION_DDOT": 0,
        "MEAN_MOTION_DOT": 1.794e-05,
        "NORAD_CAT_ID": 39427,
        "OBJECT_ID": "2013-066M",
        "OBJECT_NAME": "TRITON-1",
        "RA_OF_ASC_NODE": 80.3441,
        "REV_AT_EPOCH": 67444
    },
    {
        "ARG_OF_PERICENTER": 70.2331,
        "BSTAR": 0.00021149521,
        "CLASSIFICATION_TYPE": "U",
        "ECCENTRICITY": 0.01301079,
        "ELEMENT_SET_NO": 999,
        "EPHEMERIS_TYPE": 0,
        "EPOCH": "2026-06-19T12:01:37.688160",
        "INCLINATION": 97.6476,
        "MEAN_ANOMALY": 291.2853,
        "MEAN_MOTION": 14.69467011,
        "MEAN_MOTION_DDOT": 0,
        "MEAN_MOTION_DOT": 1.376e-05,
        "NORAD_CAT_ID": 39430,
        "OBJECT_ID": "2013-066Q",
        "OBJECT_NAME": "GOMX-1",
        "RA_OF_ASC_NODE": 10.8173,
        "REV_AT_EPOCH": 67025
    },
    {
        "ARG_OF_PERICENTER": 21.2784,
        "BSTAR": 0.00038372862,
        "CLASSIFICATION_TYPE": "U",
        "ECCENTRICITY": 0.00582323,
        "ELEMENT_SET_NO": 999,
        "EPHEMERIS_TYPE": 0,
        "EPOCH": "2026-06-19T14:36:26.442432",
        "INCLINATION": 97.8909,
        "MEAN_ANOMALY": 339.0838,
        "MEAN_MOTION": 14.93780108,
        "MEAN_MOTION_DDOT": 0,
        "MEAN_MOTION_DOT": 4.144e-05,
        "NORAD_CAT_ID": 39440,
        "OBJECT_ID": "2013-066AA",
        "OBJECT_NAME": "CUBEBUG-2 (LO-74)",
        "RA_OF_ASC_NODE": 119.5969,
        "REV_AT_EPOCH": 67735
    },
    {
        "ARG_OF_PERICENTER": 62.8163,
        "BSTAR": 0.00022767248,
        "CLASSIFICATION_TYPE": "U",
        "ECCENTRICITY": 0.00675751,
        "ELEMENT_SET_NO": 999,
        "EPHEMERIS_TYPE": 0,
        "EPOCH": "2026-06-19T11:56:37.835232",
        "INCLINATION": 97.8893,
        "MEAN_ANOMALY": 297.9919,
        "MEAN_MOTION": 14.86626623,
        "MEAN_MOTION_DDOT": 0,
        "MEAN_MOTION_DOT": 2.047e-05,
        "NORAD_CAT_ID": 39441,
        "OBJECT_ID": "2013-066AB",
        "OBJECT_NAME": "NEE-02 KRYSAOR",
        "RA_OF_ASC_NODE": 109.6957,
        "REV_AT_EPOCH": 67654
    },
    {
        "ARG_OF_PERICENTER": 193.1795,
        "BSTAR": 0.0003092781,
        "CLASSIFICATION_TYPE": "U",
        "ECCENTRICITY": 0.00358347,
        "ELEMENT_SET_NO": 999,
        "EPHEMERIS_TYPE": 0,
        "EPOCH": "2026-06-19T09:02:23.265024",
        "INCLINATION": 97.828,
        "MEAN_ANOMALY": 166.85,
        "MEAN_MOTION": 15.09511616,
        "MEAN_MOTION_DDOT": 0,
        "MEAN_MOTION_DOT": 4.964e-05,
        "NORAD_CAT_ID": 39444,
        "OBJECT_ID": "2013-066AE",
        "OBJECT_NAME": "FUNCUBE-1 (AO-73)",
        "RA_OF_ASC_NODE": 141.8681,
        "REV_AT_EPOCH": 67999
    },
    {
        "ARG_OF_PERICENTER": 313.4566,
        "BSTAR": 0.00033187102,
        "CLASSIFICATION_TYPE": "U",
        "ECCENTRICITY": 0.00472593,
        "ELEMENT_SET_NO": 999,
        "EPHEMERIS_TYPE": 0,
        "EPOCH": "2026-06-19T11:43:01.358688",
        "INCLINATION": 97.87,
        "MEAN_ANOMALY": 46.2728,
        "MEAN_MOTION": 14.97040725,
        "MEAN_MOTION_DDOT": 0,
        "MEAN_MOTION_DOT": 3.847e-05,
        "NORAD_CAT_ID": 39446,
        "OBJECT_ID": "2013-066AG",
        "OBJECT_NAME": "UWE-3",
        "RA_OF_ASC_NODE": 126.5771,
        "REV_AT_EPOCH": 67792
    }